[{"OBJECT_NAME":"STARLINK-4103","OBJECT_ID":"2022-083K","EPOCH":"2026-03-09T13:53:44.577888","MEAN_MOTION":15.08838158,"ECCENTRICITY":0.0001258,"INCLINATION":53.2178,"RA_OF_ASC_NODE":174.6166,"ARG_OF_PERICENTER":110.5244,"MEAN_ANOMALY":249.5883,"EPHEMERIS_TYPE":0,"CLASSIFICATION_TYPE":"U","NORAD_CAT_ID":53141,"ELEMENT_SET_NO":999,"REV_AT_EPOCH":20120,"BSTAR":-4.7507e-6,"MEAN_MOTION_DOT":-3.63e-6,"MEAN_MOTION_DDOT":0},{"OBJECT_NAME":"FENGYUN 1C DEB","OBJECT_ID":"1999-025EXB","EPOCH":"2026-02-23T13:42:59.544864","MEAN_MOTION":14.51393564,"ECCENTRICITY":0.0280295,"INCLINATION":99.4251,"RA_OF_ASC_NODE":186.6378,"ARG_OF_PERICENTER":116.5278,"MEAN_ANOMALY":246.4942,"EPHEMERIS_TYPE":0,"CLASSIFICATION_TYPE":"U","NORAD_CAT_ID":40695,"ELEMENT_SET_NO":999,"REV_AT_EPOCH":32922,"BSTAR":0.00034500254,"MEAN_MOTION_DOT":2.228e-5,"MEAN_MOTION_DDOT":0}]
